{"type": "FeatureCollection", "features": [ {"type": "Feature", "properties": {"norad_id": 29779, "name": "FENGYUN 1C DEB", "group": "fengyun-1c-debris", "lat": 0.29946538144013934, "lon": 166.79577857766736, "alt_km": 807.1924080775116, "timestamp": "2025-12-01T03:58:50.085000+00:00", "meta": {"OBJECT_NAME": "FENGYUN 1C DEB", "OBJECT_ID": "1999-025BV", "EPOCH": "2025-11-30T18:38:12.395040", "MEAN_MOTION": 14.13425568, "ECCENTRICITY": 0.0062885, "INCLINATION": 98.6779, "RA_OF_ASC_NODE": 346.3724, "ARG_OF_PERICENTER": 198.2892, "MEAN_ANOMALY": 161.6019, "EPHEMERIS_TYPE": 0, "CLASSIFICATION_TYPE": "U", "NORAD_CAT_ID": 29779, "ELEMENT_SET_NO": 999, "REV_AT_EPOCH": 97243, "BSTAR": 0.00023943, "MEAN_MOTION_DOT": 4.16e-06, "MEAN_MOTION_DDOT": 0, "GROUP": "fengyun-1c-debris"}, "tle": {"line1": "1 29779U 99025BV  25334.77653235  .00000416  00000+0  23943-3 0  9998", "line2": "2 29779  98.6779 346.3724 0062885 198.2892 161.6019 14.13425568972437"}}, "geometry": {"type": "Point", "coordinates": [166.79577857766736, 0.29946538144013934]}}, {"type": "Feature", "properties": {"norad_id": 29780, "name": "FENGYUN 1C DEB", "group": "fengyun-1c-debris", "lat": -8.402353072890154, "lon": -103.097600337535, "alt_km": 854.3898762324507, "timestamp": "2025-12-01T03:58:50.085011+00:00", "meta": {"OBJECT_NAME": "FENGYUN 1C DEB", "OBJECT_ID": "1999-025BW", "EPOCH": "2025-11-30T17:52:50.946240", "MEAN_MOTION": 14.20904934, "ECCENTRICITY": 0.0039651, "INCLINATION": 99.2763, "RA_OF_ASC_NODE": 255.0776, "ARG_OF_PERICENTER": 163.5406, "MEAN_ANOMALY": 196.7066, "EPHEMERIS_TYPE": 0, "CLASSIFICATION_TYPE": "U", "NORAD_CAT_ID": 29780, "ELEMENT_SET_NO": 999, "REV_AT_EPOCH": 96908, "BSTAR": 0.0016317, "MEAN_MOTION_DOT": 3.512e-05, "MEAN_MOTION_DDOT": 0, "GROUP": "fengyun-1c-debris"}, "tle": {"line1": "1 29780U 99025BW  25334.74503410  .00003512  00000+0  16317-2 0  9992", "line2": "2 29780  99.2763 255.0776 0039651 163.5406 196.7066 14.20904934969088"}}, "geometry": {"type": "Point", "coordinates": [-103.097600337535, -8.402353072890154]}}, {"type": "Feature", "properties": {"norad_id": 29781, "name": "FENGYUN 1C DEB", "group": "fengyun-1c-debris", "lat": -58.36978042773894, "lon": 135.06913924203917, "alt_km": 839.6660875523103, "timestamp": "2025-12-01T03:58:50.085022+00:00", "meta": {"OBJECT_NAME": "FENGYUN 1C DEB", "OBJECT_ID": "1999-025BX", "EPOCH": "2025-11-30T10:30:59.103648", "MEAN_MOTION": 14.05188621, "ECCENTRICITY": 0.00715552, "INCLINATION": 98.8102, "RA_OF_ASC_NODE": 328.946, "ARG_OF_PERICENTER": 207.7183, "MEAN_ANOMALY": 312.2345, "EPHEMERIS_TYPE": 0, "CLASSIFICATION_TYPE": "U", "NORAD_CAT_ID": 29781, "ELEMENT_SET_NO": 999, "REV_AT_EPOCH": 96470, "BSTAR": 0.00072604187, "MEAN_MOTION_DOT": 1.157e-05, "MEAN_MOTION_DDOT": 0, "GROUP": "fengyun-1c-debris"}, "tle": {"line1": "1 29781U 99025BX  25334.43818407  .00001157  00000+0  72604-3 0  9999", "line2": "2 29781  98.8102 328.9460 0071555 207.7183 312.2345 14.05188621964702"}}, "geometry": {"type": "Point", "coordinates": [135.06913924203917, -58.36978042773894]}}, {"type": "Feature", "properties": {"norad_id": 29782, "name": "FENGYUN 1C DEB", "group": "fengyun-1c-debris", "lat": 9.544656100274915, "lon": 27.054807916806723, "alt_km": 883.4656927694459, "timestamp": "2025-12-01T03:58:50.085033+00:00", "meta": {"OBJECT_NAME": "FENGYUN 1C DEB", "OBJECT_ID": "1999-025BY", "EPOCH": "2025-11-30T18:15:25.617888", "MEAN_MOTION": 14.11567793, "ECCENTRICITY": 0.0054831, "INCLINATION": 99.1016, "RA_OF_ASC_NODE": 28.1886, "ARG_OF_PERICENTER": 236.0018, "MEAN_ANOMALY": 235.6698, "EPHEMERIS_TYPE": 0, "CLASSIFICATION_TYPE": "U", "NORAD_CAT_ID": 29782, "ELEMENT_SET_NO": 999, "REV_AT_EPOCH": 96502, "BSTAR": 0.001219, "MEAN_MOTION_DOT": 2.199e-05, "MEAN_MOTION_DDOT": 0, "GROUP": "fengyun-1c-debris"}, "tle": {"line1": "1 29782U 99025BY  25334.76071317  .00002199  00000+0  12190-2 0  9997", "line2": "2 29782  99.1016  28.1886 0054831 236.0018 235.6698 14.11567793965025"}}, "geometry": {"type": "Point", "coordinates": [27.054807916806723, 9.544656100274915]}}, {"type": "Feature", "properties": {"norad_id": 29784, "name": "FENGYUN 1C DEB", "group": "fengyun-1c-debris", "lat": 79.84759737989819, "lon": 135.21643399733173, "alt_km": 806.1072740738728, "timestamp": "2025-12-01T03:58:50.085044+00:00", "meta": {"OBJECT_NAME": "FENGYUN 1C DEB", "OBJECT_ID": "1999-025CA", "EPOCH": "2025-11-30T17:43:02.366112", "MEAN_MOTION": 14.30522312, "ECCENTRICITY": 0.0060103, "INCLINATION": 98.9445, "RA_OF_ASC_NODE": 253.1947, "ARG_OF_PERICENTER": 332.6437, "MEAN_ANOMALY": 80.5541, "EPHEMERIS_TYPE": 0, "CLASSIFICATION_TYPE": "U", "NORAD_CAT_ID": 29784, "ELEMENT_SET_NO": 999, "REV_AT_EPOCH": 98188, "BSTAR": 0.00061091, "MEAN_MOTION_DOT": 1.577e-05, "MEAN_MOTION_DDOT": 0, "GROUP": "fengyun-1c-debris"}, "tle": {"line1": "1 29784U 99025CA  25334.73822183  .00001577  00000+0  61091-3 0  9995", "line2": "2 29784  98.9445 253.1947 0060103 332.6437  80.5541 14.30522312981880"}}, "geometry": {"type": "Point", "coordinates": [135.21643399733173, 79.84759737989819]}}, {"type": "Feature", "properties": {"norad_id": 29786, "name": "FENGYUN 1C DEB", "group": "fengyun-1c-debris", "lat": -26.532371741609893, "lon": 168.33203861080747, "alt_km": 903.4744043874289, "timestamp": "2025-12-01T03:58:50.085056+00:00", "meta": {"OBJECT_NAME": "FENGYUN 1C DEB", "OBJECT_ID": "1999-025CC", "EPOCH": "2025-11-30T13:57:28.384128", "MEAN_MOTION": 14.09071774, "ECCENTRICITY": 0.0077433, "INCLINATION": 98.7367, "RA_OF_ASC_NODE": 352.1689, "ARG_OF_PERICENTER": 337.755, "MEAN_ANOMALY": 147.4978, "EPHEMERIS_TYPE": 0, "CLASSIFICATION_TYPE": "U", "NORAD_CAT_ID": 29786, "ELEMENT_SET_NO": 999, "REV_AT_EPOCH": 96989, "BSTAR": 0.00023293, "MEAN_MOTION_DOT": 3.72e-06, "MEAN_MOTION_DDOT": 0, "GROUP": "fengyun-1c-debris"}, "tle": {"line1": "1 29786U 99025CC  25334.58157852  .00000372  00000+0  23293-3 0  9998", "line2": "2 29786  98.7367 352.1689 0077433 337.7550 147.4978 14.09071774969893"}}, "geometry": {"type": "Point", "coordinates": [168.33203861080747, -26.532371741609893]}}, {"type": "Feature", "properties": {"norad_id": 29788, "name": "FENGYUN 1C DEB", "group": "fengyun-1c-debris", "lat": 18.41918857230331, "lon": -130.28512981685736, "alt_km": 790.6716933754642, "timestamp": "2025-12-01T03:58:50.085067+00:00", "meta": {"OBJECT_NAME": "FENGYUN 1C DEB", "OBJECT_ID": "1999-025CE", "EPOCH": "2025-11-30T19:20:20.695776", "MEAN_MOTION": 14.2582171, "ECCENTRICITY": 0.0042608, "INCLINATION": 98.7855, "RA_OF_ASC_NODE": 46.4019, "ARG_OF_PERICENTER": 222.516, "MEAN_ANOMALY": 252.0104, "EPHEMERIS_TYPE": 0, "CLASSIFICATION_TYPE": "U", "NORAD_CAT_ID": 29788, "ELEMENT_SET_NO": 999, "REV_AT_EPOCH": 97185, "BSTAR": 0.0017573, "MEAN_MOTION_DOT": 4.176e-05, "MEAN_MOTION_DDOT": 0, "GROUP": "fengyun-1c-debris"}, "tle": {"line1": "1 29788U 99025CE  25334.80579509  .00004176  00000+0  17573-2 0  9991", "line2": "2 29788  98.7855  46.4019 0042608 222.5160 252.0104 14.25821710971855"}}, "geometry": {"type": "Point", "coordinates": [-130.28512981685736, 18.41918857230331]}}, {"type": "Feature", "properties": {"norad_id": 29789, "name": "FENGYUN 1C DEB", "group": "fengyun-1c-debris", "lat": 51.91828574617988, "lon": 146.1747372223397, "alt_km": 1103.1293941827325, "timestamp": "2025-12-01T03:58:50.085079+00:00", "meta": {"OBJECT_NAME": "FENGYUN 1C DEB", "OBJECT_ID": "1999-025CF", "EPOCH": "2025-11-30T11:53:45.722976", "MEAN_MOTION": 13.54195866, "ECCENTRICITY": 0.02984153, "INCLINATION": 99.4521, "RA_OF_ASC_NODE": 157.8075, "ARG_OF_PERICENTER": 309.6948, "MEAN_ANOMALY": 74.4303, "EPHEMERIS_TYPE": 0, "CLASSIFICATION_TYPE": "U", "NORAD_CAT_ID": 29789, "ELEMENT_SET_NO": 999, "REV_AT_EPOCH": 92822, "BSTAR": 0.0013635972, "MEAN_MOTION_DOT": 1.187e-05, "MEAN_MOTION_DDOT": 0, "GROUP": "fengyun-1c-debris"}, "tle": {"line1": "1 29789U 99025CF  25334.49566809  .00001187  00000+0  13636-2 0  9991", "line2": "2 29789  99.4521 157.8075 0298415 309.6948  74.4303 13.54195866928220"}}, "geometry": {"type": "Point", "coordinates": [146.1747372223397, 51.91828574617988]}}, {"type": "Feature", "properties": {"norad_id": 29790, "name": "FENGYUN 1C DEB", "group": "fengyun-1c-debris", "lat": 8.635678352688322, "lon": 149.96557179588635, "alt_km": 743.567702112925, "timestamp": "2025-12-01T03:58:50.085108+00:00", "meta": {"OBJECT_NAME": "FENGYUN 1C DEB", "OBJECT_ID": "1999-025CG", "EPOCH": "2025-11-30T20:28:22.325088", "MEAN_MOTION": 14.32237719, "ECCENTRICITY": 0.0076005, "INCLINATION": 99.147, "RA_OF_ASC_NODE": 328.2337, "ARG_OF_PERICENTER": 211.1474, "MEAN_ANOMALY": 148.5191, "EPHEMERIS_TYPE": 0, "CLASSIFICATION_TYPE": "U", "NORAD_CAT_ID": 29790, "ELEMENT_SET_NO": 999, "REV_AT_EPOCH": 98355, "BSTAR": 0.00031221, "MEAN_MOTION_DOT": 8.2e-06, "MEAN_MOTION_DDOT": 0, "GROUP": "fengyun-1c-debris"}, "tle": {"line1": "1 29790U 99025CG  25334.85303617  .00000820  00000+0  31221-3 0  9993", "line2": "2 29790  99.1470 328.2337 0076005 211.1474 148.5191 14.32237719983553"}}, "geometry": {"type": "Point", "coordinates": [149.96557179588635, 8.635678352688322]}}]}